#aV2023  5  8  0  0  0.00000000     288 DD+AD WGS84 FIT  NGA
## 2261  86400.00000000   300.00000000 60072 0.0000000000000
+   32     1  2  3  4  5  6  7  8  9 10 11 12 13 14 15 16 17
+         18 19 20 21 22 23 24 25 26 27 28 29 30 31 32  0  0
+          0  0  0  0  0  0  0  0  0  0  0  0  0  0  0  0  0
+          0  0  0  0  0  0  0  0  0  0  0  0  0  0  0  0  0
+          0  0  0  0  0  0  0  0  0  0  0  0  0  0  0  0  0
++         2  2  2  2  2  2  2  2  2  2  2  2  2  2  2  2  2
++         2  2  2  2  2  2  2  2  2  2  2  2  2  2  2  0  0
++         0  0  0  0  0  0  0  0  0  0  0  0  0  0  0  0  0
++         0  0  0  0  0  0  0  0  0  0  0  0  0  0  0  0  0
++         0  0  0  0  0  0  0  0  0  0  0  0  0  0  0  0  0
%c cc cc ccc ccc cccc cccc cccc cccc ccccc ccccc ccccc ccccc
%c cc cc ccc ccc cccc cccc cccc cccc ccccc ccccc ccccc ccccc
%f  0.0000000  0.000000000  0.00000000000  0.000000000000000
%f  0.0000000  0.000000000  0.00000000000  0.000000000000000
%i    0    0    0    0      0      0      0      0         0
%i    0    0    0    0      0      0      0      0         0
/*      NGA, ST. LOUIS,MO.                                  
/*   EPHEMERIS COMPUTED FROM 2 DAYS OF DATA                 
/*   EPOCHA v8 SMOOTHER                                     
/*   G2139 IERS2010 SATIGS SATAPC                           
*  2023  5  8 21 25  0.00000000
P  1  15647.591459  13663.049230 -17089.026968    186.830477                    
V  1 -20763.235351  -2165.779244 -20816.593976     -0.029438                    
P  2 -21508.582989   7815.044251 -12861.765437   -598.176878                    
V  2 -17073.476142  -3209.753404  25767.277846      0.038112                    
P  3  12986.428934  22689.853318   4913.843464   -308.820936                    
V  3    495.685178   6691.169541 -31263.922969      0.105181                    
P  4   7976.619112  13685.625343  21315.841505     36.493818                    
V  4 -17659.719498  20500.518380  -6667.994399      0.096475                    
P  5  -3345.173563 -24059.247446  10427.803618   -126.443438                    
V  5   7990.139086  11194.223907  28043.483163     -0.014610                    
P  6  21998.076508  -6043.312319  13746.139773    588.127791                    
V  6  16901.047696   3797.806854 -25392.400143     -0.000026                    
P  7  25421.701061   7128.635578   5188.221783    182.961240                    
V  7  -6228.853852   1781.183414  30310.560730     -0.091660                    
P  8  -2033.008681  21346.482396 -15484.031617   -121.482597                    
V  8 -13380.880868  14632.680763  22416.759208     -0.017377                    
P  9  15880.141486   3375.316207  20956.841768   -163.131905                    
V  9 -15212.028843  22058.179328   7904.931730      0.082884                    
P 10 -14551.573357   3248.992144 -21822.161868    -36.119476                    
V 10 -10732.574780 -25926.912807   2970.165468     -0.015595                    
P 11   8707.020725 -13354.085758  21246.144538   -189.845975                    
V 11  26396.717143   5475.062747  -7414.065675     -0.136161                    
P 12  -9913.327175 -24557.100752   2283.293188   -373.626895                    
V 12   1429.312187  -3888.096536 -31638.495781     -0.046788                    
P 13  10779.615404 -21490.495881 -11232.242045    517.164553                    
V 13  11614.063618  -8244.588809  27546.390794      0.054106                    
P 14  16141.919421    -56.488986 -21103.077283     50.343384                    
V 14   8944.532323  25310.856244   6624.937099      0.126459                    
P 15  -1372.181187 -21498.247105 -15822.454033     37.765784                    
V 15  11793.983333 -15696.474968  21176.616367      0.034417                    
P 16  -1996.347404  22844.347706  12692.760257   -502.670041                    
V 16  -7504.605677 -15224.593586  26053.129472      0.031727                    
P 17  20603.028414 -10653.283335 -12610.194493    714.039845                    
V 17  -9403.013947  13875.159677 -26098.499920      0.014705                    
P 18 -26189.754267  -4750.872799   1201.954517   -258.096206                    
V 18   1839.274416  -2021.520097  31893.748278     -0.159962                    
P 19  20322.229075 -16034.648816  -5413.464947    314.271567                    
V 19  -2709.480994   6575.017581 -31229.938775      0.051046                    
P 20   2634.001865 -19710.415372  17737.433721    434.651501                    
V 20  13384.908033  18060.921316  17924.196928     -0.020884                    
P 21   7830.237473  14586.656904 -20395.575826    153.921764                    
V 21 -26970.175243   -621.446955  -9682.394142     -0.001693                    
P 22 -18485.669078  18846.304714  -1489.589920    477.995329                    
V 22   -535.867547  -3783.365342 -31819.086533      0.064859                    
P 23 -17460.103652  -9530.912087 -17669.096565     22.653062                    
V 23  -7946.306343 -20939.124007  18993.839961      0.029852                    
P 24 -11927.887961 -14682.555697 -19154.011860   -181.535002                    
V 24  23575.080152   -390.692656 -14235.405379     -0.140337                    
P 25 -16435.676803 -17277.539624  11659.162207    441.418868                    
V 25  -3750.928673 -14940.009564 -26446.691877      0.027316                    
P 26  -9720.090237  13970.767561  20197.899144    241.026821                    
V 26 -12803.317947 -22768.786005   9871.884179     -0.004426                    
P 27 -11611.786988  22779.080171  -6585.657389     41.665223                    
V 27  -7134.880282   4785.402202  30681.320008     -0.081495                    
P 28 -23000.353657   6068.742659  11785.966048     75.617635                    
V 28 -14712.862193  -3774.716511 -26717.255060      0.039738                    
P 29 -13126.643860  -7434.969057  21812.157992   -598.692385                    
V 29  18326.169366 -20867.999833   3821.580914     -0.014197                    
P 30  25925.897584   -983.690408  -6193.439250   -518.272481                    
V 30   7448.526843   4330.348244  29689.221859      0.020871                    
P 31 -15849.715179  10757.825371  18413.313455   -215.705194                    
V 31 -23109.042409  -4951.676562 -16405.801408     -0.008060                    
P 32 -19815.288542  13512.462400 -11013.836877   -471.699125                    
V 32   6473.274571 -13059.844247 -27418.555533     -0.094179                    
EOF
